[{"OBJECT_NAME":"TIANMU-1 10","OBJECT_ID":"2023-101D","EPOCH":"2026-03-09T23:06:46.939392","MEAN_MOTION":15.2921896,"ECCENTRICITY":0.00069292,"INCLINATION":97.2749,"RA_OF_ASC_NODE":122.1027,"ARG_OF_PERICENTER":133.6162,"MEAN_ANOMALY":226.5654,"EPHEMERIS_TYPE":0,"CLASSIFICATION_TYPE":"U","NORAD_CAT_ID":57402,"ELEMENT_SET_NO":999,"REV_AT_EPOCH":14647,"BSTAR":0.00032238884,"MEAN_MOTION_DOT":9.075e-5,"MEAN_MOTION_DDOT":0},{"OBJECT_NAME":"STARLINK-32901","OBJECT_ID":"2025-024S","EPOCH":"2026-03-09T09:43:06.939552","MEAN_MOTION":15.27595016,"ECCENTRICITY":8.273e-5,"INCLINATION":43.0014,"RA_OF_ASC_NODE":326.8612,"ARG_OF_PERICENTER":309.5419,"MEAN_ANOMALY":50.536,"EPHEMERIS_TYPE":0,"CLASSIFICATION_TYPE":"U","NORAD_CAT_ID":62895,"ELEMENT_SET_NO":999,"REV_AT_EPOCH":6222,"BSTAR":0.0011821364,"MEAN_MOTION_DOT":0.00032426,"MEAN_MOTION_DDOT":0}]
